GPS_BIII-3-PRN-23
1 45854U 20041A   23124.16675087 -.00000020  00000+0  00000+0 0  9996
2 45854  55.7813  73.5928 0031345 187.3316 306.8920  2.00565916 21179
